FENGYUN 1C DEB          
1 36716U 99025EAN 17345.56365720  .00000036  00000-0  61807-4 0  9997
2 36716  99.1902 264.6543 0151399 165.9094 194.6358 13.86765231224014
